COSMOS 2058             
1 20465U 90010A   26068.44951663  .00005023  00000+0  29631-3 0  9990
2 20465  82.4670  47.6646 0009374 345.0233  15.0718 15.11318921942203
SL-14 R/B               
1 20466U 90010B   26068.61945141  .00000519  00000+0  60041-4 0  9990
2 20466  82.4987 267.4549 0018538 302.6174  57.3252 14.83568711928471
SL-14 R/B               
1 20511U 90018B   26068.50220682  .00000693  00000+0  83952-4 0  9992
2 20511  82.5202 223.2647 0017676  92.6107 267.7131 14.82144727922558
HST                     
1 20580U 90037B   26068.15977042  .00009063  00000+0  30023-3 0  9999
2 20580  28.4717  43.6133 0001837 120.9992 239.0785 15.29473555773239
SL-16 R/B               
1 20625U 90046B   26068.83857323 -.00000235  00000+0 -96382-4 0  9998
2 20625  70.9988 297.6021 0016219 299.3998  60.5505 14.15012359848410
COSMOS 2084             
1 20663U 90055A   26068.85479067  .00003224  00000+0  23541-3 0  9992
2 20663  62.7921 335.0153 0017016 190.1058 169.9703 15.05653375936345
SL-6 R/B(2)             
1 20666U 90055D   26068.83765625  .00002682  00000+0  20856-3 0  9994
2 20666  62.7825 253.3472 0024765 347.1256  12.9207 15.03595131938217
SL-8 R/B                
1 20775U 90078B   26068.57562763  .00017130  00000+0  50427-3 0  9990
2 20775  82.9005 251.4134 0362313  14.3826 346.7376 14.89054414809282
SL-8 R/B                
1 21088U 91006B   26068.78119235  .00000078  00000+0  62827-4 0  9996
2 21088  82.9466 169.9779 0023079  38.0675  80.4726 13.77494195764086
OKEAN-3                 
1 21397U 91039A   26068.81200846  .00004536  00000+0  31885-3 0  9990
2 21397  82.5190 336.7249 0013941 337.9296  22.1329 15.04805880865052
COSMOS 2151             
1 21422U 91042A   26068.81675388  .00001901  00000+0  15011-3 0  9996
2 21422  82.4930  83.5536 0013996  63.5167 296.7490 15.00104600863219
SL-14 R/B               
1 21423U 91042B   26068.82526764  .00000650  00000+0  79253-4 0  9990
2 21423  82.4923 220.0551 0015796 238.1586 121.8091 14.81829764853095
